ONEWEB-0156             
1 48052U 21025L   24288.70721418  .00000011  00000+0 -48923-5 0  9996
2 48052  87.8867  81.6589 0001633  92.6529 267.4787 13.13471845173434
ONEWEB-0161             
1 48053U 21025M   24288.68021919 -.00000150  00000+0 -44709-3 0  9994
2 48053  87.8873  81.6746 0001661  86.0621 274.0698 13.13465773173368
ONEWEB-0158             
1 48054U 21025N   24288.71831697  .00000221  00000+0  57141-3 0  9992
2 48054  87.8871  81.6550 0001574  97.5816 262.5492 13.13469290173492
ONEWEB-0157             
1 48055U 21025P   24288.81830452  .00000131  00000+0  32243-3 0  9998
2 48055  87.8870  81.6481 0001484  88.1469 271.9830 13.13470825173446
ONEWEB-0162             
1 48056U 21025Q   24288.70559891 -.00002303  00000+0 -63422-2 0  9999
2 48056  87.8867  81.6653 0001632  94.9489 265.1826 13.13479021173409
ONEWEB-0155             
1 48057U 21025R   24288.72625945  .00000448  00000+0  11912-2 0  9999
2 48057  87.8869  81.6732 0001795  88.1101 272.0234 13.13471981173548
ONEWEB-0149             
1 48058U 21025S   24288.67069369  .00000048  00000+0  96587-4 0  9995
2 48058  87.8868  81.6796 0001393  96.0688 264.0599 13.13472961173342
ONEWEB-0148             
1 48059U 21025T   24288.71196592  .00000216  00000+0  55515-3 0  9992
2 48059  87.8870  81.6863 0001067  84.2165 275.9086 13.13472988173473
ONEWEB-0160             
1 48060U 21025U   24288.72784656  .00000401  00000+0  10641-2 0  9995
2 48060  87.8874  81.6795 0002139 117.6974 242.4372 13.13467455173428
ONEWEB-0163             
1 48061U 21025V   24288.71356528  .00000150  00000+0  37531-3 0  9997
2 48061  87.8867  81.6712 0001620  83.3430 276.7883 13.13469500173543
ONEWEB-0159             
1 48062U 21025W   24288.70244464 -.00000096  00000+0 -29902-3 0  9996
2 48062  87.8870  81.6559 0001488  87.0039 273.1261 13.13472498173467
ONEWEB-0164             
1 48063U 21025X   24288.68497641 -.00000686  00000+0 -19144-2 0  9992
2 48063  87.8867  81.6693 0001758  94.7685 265.3644 13.13469241173443
ONEWEB-0167             
1 48064U 21025Y   24288.86670203  .00000205  00000+0  52685-3 0  9993
2 48064  87.8868  81.6469 0001593  86.1499 273.9813 13.13473282173455
ONEWEB-0166             
1 48065U 21025Z   24288.65960493  .00000324  00000+0  85105-3 0  9999
2 48065  87.8866  81.6667 0001430  93.8110 266.3182 13.13471249173501
ONEWEB-0151             
1 48066U 21025AA  24288.66117910 -.00000697  00000+0 -19447-2 0  9999
2 48066  87.8868  81.6826 0001809  91.8457 268.2879 13.13476958173442
ONEWEB-0170             
1 48067U 21025AB  24288.66911856  .00000104  00000+0  25056-3 0  9996
2 48067  87.8869  81.6840 0002230 101.4527 258.6853 13.13472121173404
ONEWEB-0168             
1 48068U 21025AC  24288.73100388  .00000458  00000+0  12179-2 0  9998
2 48068  87.8872  81.6455 0001614  90.5352 269.5962 13.13473653173425
ONEWEB-0173             
1 48069U 21025AD  24288.72308491  .00000310  00000+0  81397-3 0  9999
2 48069  87.8871  81.6566 0001900  79.6319 280.5024 13.13468344173666
ONEWEB-0171             
1 48070U 21025AE  24288.68339029 -.00000550  00000+0 -15416-2 0  9993
2 48070  87.8873  81.7005 0001750  90.9764 269.1566 13.13469036173474
ONEWEB-0172             
1 48071U 21025AF  24288.81513006  .00000240  00000+0  62180-3 0  9993
2 48071  87.8874  81.6406 0001762  88.6640 271.4691 13.13467927174383
ONEWEB-0174             
1 48072U 21025AG  24288.72148391  .00000128  00000+0  31645-3 0  9992
2 48072  87.8870  81.6737 0001575  93.7998 266.3311 13.13469766173690
ONEWEB-0175             
1 48073U 21025AH  24288.67387179 -.00000051  00000+0 -17386-3 0  9999
2 48073  87.8866  81.6642 0002025  94.7865 265.3495 13.13472595173344
ONEWEB-0177             
1 48074U 21025AJ  24288.68656163 -.00000313  00000+0 -89245-3 0  9997
2 48074  87.8868  81.6715 0001596  80.5139 279.6170 13.13467260173539
ONEWEB-0178             
1 48075U 21025AK  24288.70415271 -.00000688  00000+0 -19179-2 0  9997
2 48075  87.8873  81.6942 0001695  86.7637 273.3686 13.13469946173580
ONEWEB-0108             
1 48076U 21025AL  24288.66435470  .00000306  00000+0  80368-3 0  9990
2 48076  87.8868  81.6726 0001549 100.7232 259.4072 13.13467796173508
ONEWEB-0169             
1 48077U 21025AM  24288.84845122  .00000768  00000+0  20684-2 0  9996
2 48077  87.8871  81.6496 0001496 100.5394 259.5903 13.13467402172186
ONEWEB-0176             
1 48210U 21031A   24288.63823845  .00000232  00000+0  59220-3 0  9992
2 48210  87.9001  51.1052 0001715  98.3694 261.7630 13.14506406168100
ONEWEB-0184             
1 48211U 21031B   24288.76350847 -.00000196  00000+0 -56201-3 0  9991
2 48211  87.8999  51.0593 0002659  91.4577 268.6857 13.14507059168097
ONEWEB-0179             
1 48212U 21031C   24288.58115390  .00000124  00000+0  30083-3 0  9993
2 48212  87.9004  51.1027 0001660  95.5725 264.5594 13.14501551168117
ONEWEB-0180             
1 48213U 21031D   24288.76668498 -.00000164  00000+0 -47632-3 0  9990
2 48213  87.8996  51.0607 0001663  92.1106 268.0214 13.14503056168029
ONEWEB-0218             
1 48214U 21031E   24288.63665948  .00000275  00000+0  70764-3 0  9997
2 48214  87.9000  51.0884 0002634  83.3149 276.8280 13.14502884168165
ONEWEB-0209             
1 48215U 21031F   24288.77779230  .00000008  00000+0 -13790-4 0  9995
2 48215  87.9001  51.0971 0001606  92.7821 267.3492 13.14502673168181
ONEWEB-0198             
1 48216U 21031G   24288.76191877 -.00000303  00000+0 -85071-3 0  9999
2 48216  87.8999  51.1039 0001918  88.2842 271.8507 13.14505453168290
ONEWEB-0189             
1 48217U 21031H   24288.62237196 -.00000036  00000+0 -13237-3 0  9998
2 48217  87.8999  51.1068 0001918  85.0357 275.0992 13.14507123168019
ONEWEB-0196             
1 48218U 21031J   24288.60018336 -.00000490  00000+0 -13562-2 0  9994
2 48218  87.9002  51.1168 0001769  97.3852 262.7478 13.14502539168004
ONEWEB-0183             
1 48219U 21031K   24288.57478606  .00000232  00000+0  59193-3 0  9994
2 48219  87.9003  51.1375 0001491  95.9192 264.2107 13.14501487168107
ONEWEB-0185             
1 48220U 21031L   24288.60097672 -.00000431  00000+0 -11980-2 0  9994
2 48220  87.8999  51.1034 0001565  90.2600 269.8709 13.14503235168032
ONEWEB-0187             
1 48221U 21031M   24288.64695885  .00000253  00000+0  64796-3 0  9993
2 48221  87.9003  51.1288 0001601  96.3350 263.7962 13.14501525168057
ONEWEB-0192             
1 48222U 21031N   24288.77938287  .00000072  00000+0  16091-3 0  9998
2 48222  87.9002  51.1001 0001838  96.8045 263.3294 13.14502109167982
ONEWEB-0219             
1 48223U 21031P   24288.60651357 -.00000258  00000+0 -73042-3 0  9998
2 48223  87.9000  51.1078 0001603  91.7791 268.3522 13.14506358168167
ONEWEB-0202             
1 48224U 21031Q   24288.58749592  .00000092  00000+0  21403-3 0  9993
2 48224  87.9001  51.1292 0002270  81.2874 278.8513 13.14502080168146
ONEWEB-0204             
1 48225U 21031R   24288.77381454 -.00000043  00000+0 -15020-3 0  9990
2 48225  87.8997  51.1047 0001425 108.5496 251.5788 13.14506531168060
ONEWEB-0205             
1 48226U 21031S   24288.74924064 -.00000150  00000+0 -43775-3 0  9995
2 48226  87.9001  51.0804 0001615  92.9016 267.2299 13.14505483168070
ONEWEB-0206             
1 48227U 21031T   24288.79840021  .00000237  00000+0  60391-3 0  9998
2 48227  87.8998  51.0576 0001487  91.6755 268.4545 13.14505886168034
ONEWEB-0182             
1 48228U 21031U   24288.79364896  .00000238  00000+0  60812-3 0  9999
2 48228  87.9002  51.0906 0001593 103.1112 257.0196 13.14506112168245
ONEWEB-0186             
1 48229U 21031V   24288.57639408  .00000181  00000+0  45350-3 0  9997
2 48229  87.9004  51.0969 0001757  96.2258 263.9072 13.14501248168167
ONEWEB-0181             
1 48230U 21031W   24288.78254462  .00000118  00000+0  28443-3 0  9999
2 48230  87.9000  51.1263 0001807  94.5658 265.5678 13.14500563168040
ONEWEB-0188             
1 48231U 21031X   24288.82060965 -.00000108  00000+0 -32488-3 0  9993
2 48231  87.9003  51.1127 0001633  96.5105 263.6210 13.14506235167951
ONEWEB-0220             
1 48232U 21031Y   24288.63189369 -.00000091  00000+0 -27898-3 0  9993
2 48232  87.8994  51.1082 0001490  89.0265 271.1036 13.14504753168195
ONEWEB-0165             
1 48233U 21031Z   24288.81267758 -.00000192  00000+0 -55271-3 0  9991
2 48233  87.9000  51.0965 0001788  93.6088 266.5247 13.14500654168174
ONEWEB-0199             
1 48234U 21031AA  24288.79682035  .00000255  00000+0  65265-3 0  9990
2 48234  87.9002  51.0678 0001831 104.5022 255.6311 13.14505908168074
ONEWEB-0203             
1 48235U 21031AB  24288.63506178  .00000151  00000+0  37259-3 0  9994
2 48235  87.9001  51.1018 0002245 102.0804 258.0578 13.14505416168069
ONEWEB-0197             
1 48236U 21031AC  24288.76271066 -.00000310  00000+0 -87162-3 0  9991
2 48236  87.9003  51.0861 0001438 106.3520 253.7768 13.14505290167996
ONEWEB-0194             
1 48237U 21031AD  24288.81742579 -.00000083  00000+0 -25733-3 0  9993
2 48237  87.9005  51.0687 0001892 104.0138 256.1202 13.14506553168173
ONEWEB-0193             
1 48238U 21031AE  24288.60492569 -.00000602  00000+0 -16572-2 0  9999
2 48238  87.9000  51.1190 0001887  96.6740 263.4605 13.14503186168096
ONEWEB-0191             
1 48239U 21031AF  24288.61603295 -.00000136  00000+0 -40023-3 0  9992
2 48239  87.8997  51.0969 0001809  96.8887 263.2448 13.14506521167955
ONEWEB-0195             
1 48240U 21031AG  24288.59304307 -.00000077  00000+0 -24294-3 0  9999
2 48240  87.9001  51.1002 0001868  86.6121 273.5222 13.14501242167933
ONEWEB-0201             
1 48241U 21031AH  24288.81030141  .00000051  00000+0  10431-3 0  9995
2 48241  87.9004  51.0955 0001653  93.8625 266.2694 13.14501344168198
ONEWEB-0207             
1 48242U 21031AJ  24288.63744970  .00000207  00000+0  52517-3 0  9992
2 48242  87.9000  51.0943 0001521  99.4000 260.7301 13.14505317168081
